STARLINK-4217           
1 52999U 22076P   26068.47596316  .00002019  00000+0  14496-3 0  9992
2 52999  53.2169  95.0808 0001498  90.6536 269.4628 15.08829001202817
LEMUR-2-SIERRINI        
1 60579U 24149DR  26068.80891719  .00014386  00000+0  92040-3 0  9991
2 60579  97.6873 151.1225 0006580 147.8458 212.3173 15.08682764 85461
